[{"OBJECT_NAME":"KUZGTU 1 (RS47S)","OBJECT_ID":"2023-091AV","EPOCH":"2026-03-09T22:22:51.965760","MEAN_MOTION":15.27481352,"ECCENTRICITY":0.0012896,"INCLINATION":97.5178,"RA_OF_ASC_NODE":132.5224,"ARG_OF_PERICENTER":89.3666,"MEAN_ANOMALY":270.9051,"EPHEMERIS_TYPE":0,"CLASSIFICATION_TYPE":"U","NORAD_CAT_ID":57217,"ELEMENT_SET_NO":999,"REV_AT_EPOCH":14921,"BSTAR":0.00057711473,"MEAN_MOTION_DOT":0.00015496,"MEAN_MOTION_DDOT":0},{"OBJECT_NAME":"INNOCUBE (TUSAT-31)","OBJECT_ID":"2025-009H","EPOCH":"2026-03-09T17:29:29.528736","MEAN_MOTION":15.24956202,"ECCENTRICITY":0.00051092,"INCLINATION":97.3947,"RA_OF_ASC_NODE":149.8573,"ARG_OF_PERICENTER":335.5214,"MEAN_ANOMALY":24.578,"EPHEMERIS_TYPE":0,"CLASSIFICATION_TYPE":"U","NORAD_CAT_ID":62616,"ELEMENT_SET_NO":999,"REV_AT_EPOCH":6365,"BSTAR":0.00037462408,"MEAN_MOTION_DOT":9.271e-5,"MEAN_MOTION_DDOT":0}]
