KUZGTU-1 (RS47S)
1 57217U 23091AV  26068.93254590  .00015496  00000-0  57711-3 0  9995
2 57217  97.5178 132.5224 0012896  89.3666 270.9051 15.27481352149213
INNOCUBE (TUBSAT-31)
1 62616U 25009H   26068.72881399  .00009271  00000-0  37462-3 0  9990
2 62616  97.3947 149.8573 0005109 335.5214  24.5780 15.24956202 63659
